OBJECT_NAME,OBJECT_ID,EPOCH,MEAN_MOTION,ECCENTRICITY,INCLINATION,RA_OF_ASC_NODE,ARG_OF_PERICENTER,MEAN_ANOMALY,EPHEMERIS_TYPE,CLASSIFICATION_TYPE,NORAD_CAT_ID,ELEMENT_SET_NO,REV_AT_EPOCH,BSTAR,MEAN_MOTION_DOT,MEAN_MOTION_DDOT
SKYSAT-C1,2016-040C,2026-07-02T00:00:55.848096,15.36552453,.00018777,96.9550,213.9188,25.1186,335.0150,0,U,41601,999,56014,.30140118E-3,.10682E-3,0
LAPAN-A3,2016-040E,2026-07-03T15:19:28.500384,15.33216179,.00088607,97.1494,180.2449,325.7569,34.3101,0,U,41603,999,55733,.15440688E-3,.4885E-4,0
GAOFEN-3,2016-049A,2026-07-03T15:58:03.147744,14.42217062,.00016879,98.4007,192.2024,92.7243,267.4140,0,U,41727,999,52102,-.11904287E-4,-.83E-6,0
SKYSAT-C4,2016-058B,2026-07-02T12:21:41.139936,15.49073522,.0002682,96.9163,204.6492,136.9395,223.2067,0,U,41771,999,54784,.31364E-3,.16943E-3,0
SKYSAT-C5,2016-058C,2026-07-02T13:23:36.405600,15.34689761,.0001929,97.0457,223.5135,191.1565,168.9636,0,U,41772,999,54610,.24494E-3,.8161E-4,0
SKYSAT-C2,2016-058D,2026-07-02T12:10:05.068704,15.42422166,.0003095,97.0157,205.0276,35.1198,325.0254,0,U,41773,999,54741,.28849E-3,.12396E-3,0
SKYSAT-C3,2016-058E,2026-07-02T19:15:22.269312,15.53216241,.00015871,96.8995,214.0541,132.8272,227.3116,0,U,41774,999,54853,.40941715E-3,.25681E-3,0
ALSAT-1B,2016-059C,2026-07-03T14:51:47.055168,14.72287654,.00094493,97.7744,192.6740,164.3329,195.8173,0,U,41785,999,52299,.83034475E-4,.478E-5,0
PATHFINDER 1,2016-059E,2026-07-02T19:36:40.090752,14.67681735,.00290609,97.8169,182.3881,153.7681,206.5004,0,U,41787,999,52200,.13880929E-3,.748E-5,0
SCATSAT 1,2016-059H,2026-07-02T15:11:18.324672,14.79561788,.00542861,98.1185,247.5581,196.9452,162.9947,0,U,41790,999,10387,.2053603E-3,.1519E-4,0
GOKTURK 1A,2016-073A,2026-07-03T15:54:11.722752,14.62785305,.0001405,98.1232,79.0777,78.0092,282.1267,0,U,41875,999,51123,.20185468E-4,.56E-6,0
RESOURCESAT-2A,2016-074A,2026-07-03T16:20:40.529760,14.21607666,.00030071,98.7525,258.0507,50.9187,309.2258,0,U,41877,999,49664,.29738926E-3,.608E-5,0
CARTOSAT-2D,2017-008A,2026-07-03T16:33:55.499616,15.19213920,.00049183,97.4095,243.6879,173.1469,186.9834,0,U,41948,999,52008,.29978292E-3,.6247E-4,0
SENTINEL-2B,2017-013A,2026-07-04T03:08:00.187872,14.30812515,.0001189,98.5693,259.6663,95.4617,264.6702,0,U,42063,999,48706,.95463E-5,-.19E-6,0
CARTOSAT-2E,2017-036C,2026-07-03T15:24:38.925216,15.19297673,.00025051,97.4261,244.1738,235.1215,124.9785,0,U,42767,999,50064,.30920754E-3,.646E-4,0
FORMOSAT-5,2017-049A,2026-07-02T18:38:10.072608,14.50904612,.00121373,98.2251,258.7398,40.6850,319.5250,0,U,42920,999,46893,.6216498E-4,.202E-5,0
SENTINEL-5P,2017-064A,2026-07-02T20:23:39.230304,14.19521617,.00010555,98.7927,125.8697,91.7647,268.3650,0,U,42969,999,45178,.50098428E-4,.61E-6,0
SKYSAT-C11,2017-068A,2026-07-02T20:30:15.068448,15.58726723,.00005488,97.4374,333.3766,157.1121,203.0160,0,U,42987,999,48568,.43820325E-3,.33708E-3,0
SKYSAT-C10,2017-068B,2026-07-02T19:25:55.763616,15.34904040,.00012526,97.4529,320.8125,108.7727,251.3652,0,U,42988,999,48475,.32847442E-3,.11042E-3,0
SKYSAT-C9,2017-068C,2026-07-02T19:34:51.253536,15.41951093,.00093899,97.4450,321.9041,83.9821,276.2496,0,U,42989,999,48516,.35655953E-3,.15119E-3,0
SKYSAT-C8,2017-068D,2026-07-02T19:43:56.530848,15.37283391,.00012665,97.4548,320.6850,94.9370,265.2019,0,U,42990,999,48471,.33619745E-3,.12202E-3,0
SKYSAT-C7,2017-068E,2026-07-02T19:35:27.021408,15.37235684,.00067003,97.4558,321.6696,60.6962,299.4951,0,U,42991,999,48477,.33187806E-3,.12033E-3,0
SKYSAT-C6,2017-068F,2026-07-02T19:12:39.735360,15.34234376,.00052211,97.4593,321.5616,108.7442,251.4368,0,U,42992,999,48471,.31310062E-3,.10302E-3,0
CARTOSAT-2F,2018-004A,2026-07-03T16:11:24.323712,15.19196779,.00017359,97.4778,244.1481,154.3157,205.8164,0,U,43111,999,46983,.22545225E-3,.4676E-4,0
GAOFEN-1 02,2018-031A,2026-07-03T16:46:49.079424,14.76459829,.00022458,98.0519,247.1797,344.4093,15.7047,0,U,43259,999,44513,.14214927E-3,.938E-5,0
GAOFEN-1 03,2018-031B,2026-07-03T16:15:10.507680,14.76449791,.00032561,98.0510,247.0143,44.4567,315.6903,0,U,43260,999,44512,.13213621E-3,.868E-5,0
GAOFEN-1 04,2018-031D,2026-07-03T15:40:16.939776,14.76457327,.00018004,98.0519,247.1830,60.0109,300.1279,0,U,43262,999,44511,.10728302E-3,.695E-5,0
SENTINEL-3B,2018-039A,2026-07-02T11:28:21.061056,14.26739163,.0000853,98.6244,250.7906,115.3560,244.7708,0,U,43437,999,42630,.76068E-4,.14E-5,0
GAOFEN-5 01,2018-043A,2026-07-02T16:20:24.885312,14.60616345,.00027011,98.4579,155.5932,55.5650,304.5805,0,U,43461,999,43395,.88496734E-4,.381E-5,0
GAOFEN-6,2018-048A,2026-07-03T16:11:47.209344,14.76371202,.00119281,98.0962,247.3492,113.7167,246.5295,0,U,43484,999,43582,.68854484E-4,.426E-5,0
